[Satellite]
VERSION=1.1
NAME=CARBONITE 1 (CBNT-1)
NICKNAME=CARBONITE 1 (CBNT-1)
TLE1=1 40718U 15032D   17186.26838965  .00000007  00000-0  85896-5 0  9999
TLE2=2 40718  97.9678  78.0179 0018287  80.2710 280.0564 14.74530188106917
